COSMOS 2251 DEB         
1 34482U 93036UB  17345.84413490  .00000742  00000-0  24668-3 0  9997
2 34482  74.0505 260.4776 0076499 328.4602  99.3374 14.37810679460322
